Zip,State,City
90001,CA,LOS ANGELES
90002,CA,LOS ANGELES
90003,CA,LOS ANGELES
90004,CA,LOS ANGELES
90005,CA,LOS ANGELES
90006,CA,LOS ANGELES
90007,CA,LOS ANGELES
90008,CA,LOS ANGELES
90009,CA,LOS ANGELES
90010,CA,LOS ANGELES
90011,CA,LOS ANGELES
90012,CA,LOS ANGELES
90013,CA,LOS ANGELES
90014,CA,LOS ANGELES
90015,CA,LOS ANGELES
90016,CA,LOS ANGELES
90017,CA,LOS ANGELES
90018,CA,LOS ANGELES
90019,CA,LOS ANGELES
90020,CA,LOS ANGELES
90021,CA,LOS ANGELES
90022,CA,LOS ANGELES
90023,CA,LOS ANGELES
90024,CA,LOS ANGELES
90025,CA,LOS ANGELES
90026,CA,LOS ANGELES
90027,CA,LOS ANGELES
90028,CA,LOS ANGELES
90029,CA,LOS ANGELES
90030,CA,LOS ANGELES
90031,CA,LOS ANGELES
90032,CA,LOS ANGELES
90033,CA,LOS ANGELES
90034,CA,LOS ANGELES
90035,CA,LOS ANGELES
90036,CA,LOS ANGELES
90037,CA,LOS ANGELES
90038,CA,LOS ANGELES
90039,CA,LOS ANGELES
90040,CA,LOS ANGELES
90041,CA,LOS ANGELES
90042,CA,LOS ANGELES
90043,CA,LOS ANGELES
90044,CA,LOS ANGELES
90045,CA,LOS ANGELES
90046,CA,LOS ANGELES
90047,CA,LOS ANGELES
90048,CA,LOS ANGELES
90049,CA,LOS ANGELES
90050,CA,LOS ANGELES
90051,CA,LOS ANGELES
90052,CA,LOS ANGELES
90053,CA,LOS ANGELES
90054,CA,LOS ANGELES
90055,CA,LOS ANGELES
90056,CA,LOS ANGELES
90057,CA,LOS ANGELES
90058,CA,LOS ANGELES
90059,CA,LOS ANGELES
90060,CA,LOS ANGELES
90061,CA,LOS ANGELES
90062,CA,LOS ANGELES
90063,CA,LOS ANGELES
90064,CA,LOS ANGELES
90065,CA,LOS ANGELES
90066,CA,LOS ANGELES
90067,CA,LOS ANGELES
90068,CA,LOS ANGELES
90069,CA,WEST HOLLYWOOD
90070,CA,LOS ANGELES
90071,CA,LOS ANGELES
90072,CA,LOS ANGELES
90073,CA,LOS ANGELES
90074,CA,LOS ANGELES
90075,CA,LOS ANGELES
90076,CA,LOS ANGELES
90077,CA,LOS ANGELES
90078,CA,LOS ANGELES
90079,CA,LOS ANGELES
90080,CA,LOS ANGELES
90081,CA,LOS ANGELES
90082,CA,LOS ANGELES
90083,CA,LOS ANGELES
90084,CA,LOS ANGELES
90086,CA,LOS ANGELES
90087,CA,LOS ANGELES
90088,CA,LOS ANGELES
90089,CA,LOS ANGELES
90091,CA,LOS ANGELES
90093,CA,LOS ANGELES
90094,CA,LOS ANGELES
90095,CA,LOS ANGELES
90096,CA,LOS ANGELES
90097,CA,LOS ANGELES
90099,CA,LOS ANGELES
90101,CA,LOS ANGELES
90102,CA,LOS ANGELES
90103,CA,LOS ANGELES
90174,CA,LOS ANGELES
90185,CA,LOS ANGELES
90189,CA,LOS ANGELES
90201,CA,BELL
90202,CA,BELL GARDENS
90209,CA,BEVERLY HILLS
90210,CA,BEVERLY HILLS
90211,CA,BEVERLY HILLS
90212,CA,BEVERLY HILLS
90213,CA,BEVERLY HILLS
90220,CA,COMPTON
90221,CA,COMPTON
90222,CA,COMPTON
90223,CA,COMPTON
90224,CA,COMPTON
90230,CA,CULVER CITY
90231,CA,CULVER CITY
90232,CA,CULVER CITY
90233,CA,CULVER CITY
90239,CA,DOWNEY
90240,CA,DOWNEY
90241,CA,DOWNEY
90242,CA,DOWNEY
90245,CA,EL SEGUNDO
90247,CA,GARDENA
90248,CA,GARDENA
90249,CA,GARDENA
90250,CA,HAWTHORNE
90251,CA,HAWTHORNE
90254,CA,HERMOSA BEACH
90255,CA,HUNTINGTON PARK
90260,CA,LAWNDALE
90261,CA,LAWNDALE
90262,CA,LYNWOOD
90263,CA,MALIBU
90264,CA,MALIBU
90265,CA,MALIBU
90266,CA,MANHATTAN BEACH
90267,CA,MANHATTAN BEACH
90270,CA,MAYWOOD
90272,CA,PACIFIC PALISADES
90274,CA,PALOS VERDES PENINSULA
90275,CA,RANCHO PALOS VERDES
90277,CA,REDONDO BEACH
90278,CA,REDONDO BEACH
90280,CA,SOUTH GATE
90290,CA,TOPANGA
90291,CA,VENICE
90292,CA,MARINA DEL REY
90293,CA,PLAYA DEL REY
90294,CA,VENICE
90295,CA,MARINA DEL REY
90296,CA,PLAYA DEL REY
90301,CA,INGLEWOOD
90302,CA,INGLEWOOD
90303,CA,INGLEWOOD
90304,CA,INGLEWOOD
90305,CA,INGLEWOOD
90306,CA,INGLEWOOD
90307,CA,INGLEWOOD
90308,CA,INGLEWOOD
90309,CA,INGLEWOOD
90310,CA,INGLEWOOD
90311,CA,INGLEWOOD
90312,CA,INGLEWOOD
90313,CA,INGLEWOOD
90397,CA,INGLEWOOD
90398,CA,INGLEWOOD
90401,CA,SANTA MONICA
90402,CA,SANTA MONICA
90403,CA,SANTA MONICA
90404,CA,SANTA MONICA
90405,CA,SANTA MONICA
90406,CA,SANTA MONICA
90407,CA,SANTA MONICA
90408,CA,SANTA MONICA
90409,CA,SANTA MONICA
90410,CA,SANTA MONICA
90411,CA,SANTA MONICA
90501,CA,TORRANCE
90502,CA,TORRANCE
90503,CA,TORRANCE
90504,CA,TORRANCE
90505,CA,TORRANCE
90506,CA,TORRANCE
90507,CA,TORRANCE
90508,CA,TORRANCE
90509,CA,TORRANCE
90510,CA,TORRANCE
90601,CA,WHITTIER
90602,CA,WHITTIER
90603,CA,WHITTIER
90604,CA,WHITTIER
90605,CA,WHITTIER
90606,CA,WHITTIER
90607,CA,WHITTIER
90608,CA,WHITTIER
90609,CA,WHITTIER
90610,CA,WHITTIER
90612,CA,WHITTIER
90637,CA,LA MIRADA
90638,CA,LA MIRADA
90639,CA,LA MIRADA
90640,CA,MONTEBELLO
90650,CA,NORWALK
90651,CA,NORWALK
90652,CA,NORWALK
90659,CA,NORWALK
90660,CA,PICO RIVERA
90661,CA,PICO RIVERA
90662,CA,PICO RIVERA
90665,CA,PICO RIVERA
90670,CA,SANTA FE SPRINGS
90671,CA,SANTA FE SPRINGS
90701,CA,ARTESIA
90702,CA,ARTESIA
90703,CA,CERRITOS
90704,CA,AVALON
90706,CA,BELLFLOWER
90707,CA,BELLFLOWER
90710,CA,HARBOR CITY
90711,CA,LAKEWOOD
90712,CA,LAKEWOOD
90713,CA,LAKEWOOD
90714,CA,LAKEWOOD
90715,CA,LAKEWOOD
90716,CA,HAWAIIAN GARDENS
90717,CA,LOMITA
90723,CA,PARAMOUNT
90731,CA,SAN PEDRO
90732,CA,SAN PEDRO
90733,CA,SAN PEDRO
90734,CA,SAN PEDRO
90744,CA,WILMINGTON
90745,CA,CARSON
90746,CA,CARSON
90747,CA,CARSON
90748,CA,WILMINGTON
90749,CA,CARSON
90801,CA,LONG BEACH
90802,CA,LONG BEACH
90803,CA,LONG BEACH
90804,CA,LONG BEACH
90805,CA,LONG BEACH
90806,CA,LONG BEACH
90807,CA,LONG BEACH
90808,CA,LONG BEACH
90809,CA,LONG BEACH
90810,CA,LONG BEACH
90813,CA,LONG BEACH
90814,CA,LONG BEACH
90815,CA,LONG BEACH
90822,CA,LONG BEACH
90831,CA,LONG BEACH
90832,CA,LONG BEACH
90833,CA,LONG BEACH
90834,CA,LONG BEACH
90835,CA,LONG BEACH
90840,CA,LONG BEACH
90842,CA,LONG BEACH
90844,CA,LONG BEACH
90845,CA,LONG BEACH
90846,CA,LONG BEACH
90847,CA,LONG BEACH
90848,CA,LONG BEACH
90853,CA,LONG BEACH
90888,CA,LONG BEACH
90899,CA,LONG BEACH
91001,CA,ALTADENA
91003,CA,ALTADENA
91006,CA,ARCADIA
91007,CA,ARCADIA
91009,CA,DUARTE
91010,CA,DUARTE
91011,CA,LA CANADA FLINTRIDGE
91012,CA,LA CANADA FLINTRIDGE
91016,CA,MONROVIA
91017,CA,MONROVIA
91020,CA,MONTROSE
91021,CA,MONTROSE
91023,CA,MOUNT WILSON
91024,CA,SIERRA MADRE
91025,CA,SIERRA MADRE
91030,CA,SOUTH PASADENA
91031,CA,SOUTH PASADENA
91040,CA,SUNLAND
91041,CA,SUNLAND
91042,CA,TUJUNGA
91043,CA,TUJUNGA
91046,CA,VERDUGO CITY
91050,CA,PASADENA
91051,CA,PASADENA
91066,CA,ARCADIA
91077,CA,ARCADIA
91101,CA,PASADENA
91102,CA,PASADENA
91103,CA,PASADENA
91104,CA,PASADENA
91105,CA,PASADENA
91106,CA,PASADENA
91107,CA,PASADENA
91108,CA,SAN MARINO
91109,CA,PASADENA
91110,CA,PASADENA
91114,CA,PASADENA
91115,CA,PASADENA
91116,CA,PASADENA
91117,CA,PASADENA
91118,CA,SAN MARINO
91121,CA,PASADENA
91123,CA,PASADENA
91124,CA,PASADENA
91125,CA,PASADENA
91126,CA,PASADENA
91129,CA,PASADENA
91131,CA,PASADENA
91175,CA,PASADENA
91182,CA,PASADENA
91184,CA,PASADENA
91185,CA,PASADENA
91186,CA,PASADENA
91187,CA,PASADENA
91188,CA,PASADENA
91189,CA,PASADENA
91191,CA,PASADENA
91201,CA,GLENDALE
91202,CA,GLENDALE
91203,CA,GLENDALE
91204,CA,GLENDALE
91205,CA,GLENDALE
91206,CA,GLENDALE
91207,CA,GLENDALE
91208,CA,GLENDALE
91209,CA,GLENDALE
91210,CA,GLENDALE
91214,CA,LA CRESCENTA
91221,CA,GLENDALE
91222,CA,GLENDALE
91224,CA,LA CRESCENTA
91225,CA,GLENDALE
91226,CA,GLENDALE
91301,CA,AGOURA HILLS
91302,CA,CALABASAS
91303,CA,CANOGA PARK
91304,CA,CANOGA PARK
91305,CA,CANOGA PARK
91306,CA,WINNETKA
91307,CA,WEST HILLS
91308,CA,WEST HILLS
91309,CA,CANOGA PARK
91310,CA,CASTAIC
91311,CA,CHATSWORTH
91312,CA,CHATSWORTH
91313,CA,CHATSWORTH
91316,CA,ENCINO
91321,CA,NEWHALL
91322,CA,NEWHALL
91324,CA,NORTHRIDGE
91325,CA,NORTHRIDGE
91326,CA,NORTHRIDGE
91327,CA,NORTHRIDGE
91328,CA,NORTHRIDGE
91329,CA,NORTHRIDGE
91330,CA,NORTHRIDGE
91331,CA,PACOIMA
91333,CA,PACOIMA
91334,CA,PACOIMA
91335,CA,RESEDA
91337,CA,RESEDA
91340,CA,SAN FERNANDO
91341,CA,SAN FERNANDO
91342,CA,SYLMAR
91343,CA,NORTH HILLS
91344,CA,GRANADA HILLS
91345,CA,MISSION HILLS
91346,CA,MISSION HILLS
91350,CA,SANTA CLARITA
91351,CA,CANYON COUNTRY
91352,CA,SUN VALLEY
91353,CA,SUN VALLEY
91354,CA,VALENCIA
91355,CA,VALENCIA
91356,CA,TARZANA
91357,CA,TARZANA
91363,CA,WESTLAKE VILLAGE
91364,CA,WOODLAND HILLS
91365,CA,WOODLAND HILLS
91367,CA,WOODLAND HILLS
91371,CA,WOODLAND HILLS
91372,CA,CALABASAS
91376,CA,AGOURA HILLS
91380,CA,SANTA CLARITA
91381,CA,STEVENSON RANCH
91382,CA,SANTA CLARITA
91383,CA,SANTA CLARITA
91384,CA,CASTAIC
91385,CA,VALENCIA
91386,CA,CANYON COUNTRY
91387,CA,CANYON COUNTRY
91388,CA,VAN NUYS
91390,CA,SANTA CLARITA
91392,CA,SYLMAR
91393,CA,NORTH HILLS
91394,CA,GRANADA HILLS
91395,CA,MISSION HILLS
91396,CA,WINNETKA
91399,CA,WOODLAND HILLS
91401,CA,VAN NUYS
91402,CA,PANORAMA CITY
91403,CA,SHERMAN OAKS
91404,CA,VAN NUYS
91405,CA,VAN NUYS
91406,CA,VAN NUYS
91407,CA,VAN NUYS
91408,CA,VAN NUYS
91409,CA,VAN NUYS
91410,CA,VAN NUYS
91411,CA,VAN NUYS
91412,CA,PANORAMA CITY
91413,CA,SHERMAN OAKS
91416,CA,ENCINO
91423,CA,SHERMAN OAKS
91426,CA,ENCINO
91436,CA,ENCINO
91470,CA,VAN NUYS
91482,CA,VAN NUYS
91495,CA,SHERMAN OAKS
91496,CA,VAN NUYS
91497,CA,VAN NUYS
91499,CA,VAN NUYS
91501,CA,BURBANK
91502,CA,BURBANK
91503,CA,BURBANK
91504,CA,BURBANK
91505,CA,BURBANK
91506,CA,BURBANK
91507,CA,BURBANK
91508,CA,BURBANK
91510,CA,BURBANK
91521,CA,BURBANK
91522,CA,BURBANK
91523,CA,BURBANK
91526,CA,BURBANK
91601,CA,NORTH HOLLYWOOD
91602,CA,NORTH HOLLYWOOD
91603,CA,NORTH HOLLYWOOD
91604,CA,STUDIO CITY
91605,CA,NORTH HOLLYWOOD
91606,CA,NORTH HOLLYWOOD
91607,CA,VALLEY VILLAGE
91608,CA,UNIVERSAL CITY
91609,CA,NORTH HOLLYWOOD
91610,CA,TOLUCA LAKE
91611,CA,NORTH HOLLYWOOD
91612,CA,NORTH HOLLYWOOD
91614,CA,STUDIO CITY
91615,CA,NORTH HOLLYWOOD
91616,CA,NORTH HOLLYWOOD
91617,CA,VALLEY VILLAGE
91618,CA,NORTH HOLLYWOOD
91702,CA,AZUSA
91706,CA,BALDWIN PARK
91711,CA,CLAREMONT
91714,CA,CITY OF INDUSTRY
91715,CA,CITY OF INDUSTRY
91716,CA,CITY OF INDUSTRY
91722,CA,COVINA
91723,CA,COVINA
91724,CA,COVINA
91731,CA,EL MONTE
91732,CA,EL MONTE
91733,CA,SOUTH EL MONTE
91734,CA,EL MONTE
91735,CA,EL MONTE
91740,CA,GLENDORA
91741,CA,GLENDORA
91744,CA,LA PUENTE
91745,CA,HACIENDA HEIGHTS
91746,CA,LA PUENTE
91747,CA,LA PUENTE
91748,CA,ROWLAND HEIGHTS
91749,CA,LA PUENTE
91750,CA,LA VERNE
91754,CA,MONTEREY PARK
91755,CA,MONTEREY PARK
91756,CA,MONTEREY PARK
91759,CA,MT BALDY
91765,CA,DIAMOND BAR
91766,CA,POMONA
91767,CA,POMONA
91768,CA,POMONA
91769,CA,POMONA
91770,CA,ROSEMEAD
91771,CA,ROSEMEAD
91772,CA,ROSEMEAD
91773,CA,SAN DIMAS
91775,CA,SAN GABRIEL
91776,CA,SAN GABRIEL
91778,CA,SAN GABRIEL
91780,CA,TEMPLE CITY
91788,CA,WALNUT
91789,CA,WALNUT
91790,CA,WEST COVINA
91791,CA,WEST COVINA
91792,CA,WEST COVINA
91793,CA,WEST COVINA
91795,CA,WALNUT
91797,CA,POMONA
91799,CA,POMONA
91801,CA,ALHAMBRA
91802,CA,ALHAMBRA
91803,CA,ALHAMBRA
91804,CA,ALHAMBRA
91841,CA,ALHAMBRA
91896,CA,ALHAMBRA
91899,CA,ALHAMBRA
93510,CA,ACTON
93532,CA,LAKE HUGHES
93534,CA,LANCASTER
93535,CA,LANCASTER
93536,CA,LANCASTER
93539,CA,LANCASTER
93543,CA,LITTLEROCK
93544,CA,LLANO
93550,CA,PALMDALE
93551,CA,PALMDALE
93552,CA,PALMDALE
93553,CA,PEARBLOSSOM
93563,CA,VALYERMO
93584,CA,LANCASTER
93586,CA,LANCASTER
93590,CA,PALMDALE
93591,CA,PALMDALE
93599,CA,PALMDALE
